COSMOS 2513             
1 41121U 15075A   26065.66799831 -.00000142  00000+0  00000+0 0  9991
2 41121   0.0470 107.5823 0002186 239.5163 138.0129  1.00272783 37525
EXPRESS-AMU1            
1 41191U 15082A   26066.07455395  .00000153  00000+0  00000+0 0  9997
2 41191   0.0155 125.3788 0003115 206.9774 255.3333  1.00272448 37246
GAOFEN-4                
1 41194U 15083A   26066.03036846 -.00000337  00000+0  00000+0 0  9998
2 41194   0.3867  83.8550 0003821  83.0136 114.4922  1.00272750 37501
BELINTERSAT-1           
1 41238U 16001A   26066.09094873  .00000105  00000+0  00000+0 0  9990
2 41238   0.0440 282.7983 0001450  50.9788 275.2380  1.00271068 37219
IRNSS-1E                
1 41241U 16003A   26065.88914131 -.00000293  00000+0  00000+0 0  9999
2 41241  33.0128  61.2221 0017636 189.2214 346.0604  1.00273775 37055
INTELSAT 29E (IS-29E)   
1 41308U 16004A   26066.14628090  .00000005  00000+0  00000+0 0  9990
2 41308   6.2442  71.5469 0000945 246.0350 131.3827  1.00628979 37250
EUTELSAT 9B             
1 41310U 16005A   26066.07336435  .00000059  00000+0  00000+0 0  9994
2 41310   0.0314  63.7072 0004417 262.8893 233.5819  1.00270642 37090
SES-9                   
1 41380U 16013A   26066.03088846 -.00000348  00000+0  00000+0 0  9998
2 41380   0.0414 309.9608 0001591  91.1075 243.0757  1.00271287 36411
EUTELSAT 65 WEST A      
1 41382U 16014A   26066.11294596 -.00000279  00000+0  00000+0 0  9994
2 41382   0.0753  45.0369 0002185 302.5581 152.6922  1.00271570 36517
IRNSS-1F                
1 41384U 16015A   26066.01309852  .00000156  00000+0  00000+0 0  9991
2 41384   5.0908  99.2051 0019119 188.2436 274.3997  1.00272614 36646
IRNSS-1G                
1 41469U 16027A   26065.97683830 -.00000337  00000+0  00000+0 0  9995
2 41469   4.9414  99.9465 0005349 314.2522 231.6535  1.00267496 36155
JCSAT-2B                
1 41471U 16028A   26065.92614223 -.00000168  00000+0  00000+0 0  9996
2 41471   0.0203 145.1672 0000817 202.7035 304.1639  1.00271044 36100
THAICOM 8               
1 41552U 16031A   26066.09632209 -.00000124  00000+0  00000+0 0  9995
2 41552   0.0737  50.5383 0004041 305.2589 282.2281  1.00272558 35699
INTELSAT 31 (IS-31)     
1 41581U 16035A   26066.12961598 -.00000153  00000+0  00000+0 0  9993
2 41581   0.0323 241.2100 0001555 348.2276 247.0087  1.00272564 35662
BEIDOU-2 G7             
1 41586U 16037A   26066.03132181 -.00000355  00000+0  00000+0 0  9992
2 41586   1.4681  68.2517 0007926 342.9061 235.3173  1.00266382  5865
ABS-2A (MONGOLSAT-1)    
1 41588U 16038A   26066.09554207 -.00000086  00000+0  00000+0 0  9999
2 41588   0.0088 149.1536 0001782 149.4806 335.2784  1.00271010 35689
EUTELSAT 117 WEST B     
1 41589U 16038B   26066.14072602 -.00000014  00000+0  00000+0 0  9991
2 41589   0.0167 306.1248 0000444 315.0686 197.3291  1.00270832 35641
